QIANFAN-17              
1 60395U 24140S   25360.28769119  .00000119  00000+0  16503-3 0  9991
2 60395  88.9785 298.0345 0015008 159.5028 200.6728 13.50979439 69960
QIANFAN-18              
1 60396U 24140T   25360.26710924  .00000141  00000+0  19918-3 0  9998
2 60396  88.9778 297.5693 0014904 142.3605 217.8593 13.50979452 69356
QIANFAN-19              
1 61552U 24185A   25360.23973970  .00000474  00000+0  24087-3 0  9993
2 61552  88.9815  76.3975 0004949 253.9903 106.0739 14.14309491 71576
QIANFAN-20              
1 61553U 24185B   25360.25346180  .00000423  00000+0  23689-3 0  9994
2 61553  88.9813  76.7333 0003814 314.9035  45.1839 14.08856731 71392
QIANFAN-21              
1 61554U 24185C   25360.25542789  .00000662  00000+0  28981-3 0  9993
2 61554  88.9729  75.3995 0009015 328.4568  31.6082 14.22625653 71896
QIANFAN-22              
1 61555U 24185D   25360.21497380  .00000211  00000+0  17091-3 0  9996
2 61555  88.9797  77.7729 0004931 329.1648  30.9232 13.86308152 70802
QIANFAN-23              
1 61556U 24185E   25360.26677244  .00000492  00000+0  24105-3 0  9996
2 61556  88.9806  76.1977 0005511 270.5112  89.5444 14.16305338 71669
QIANFAN-24              
1 61557U 24185F   25360.24670808  .00000543  00000+0  23115-3 0  9991
2 61557  88.9788  75.5828 0007535 247.4314 112.6081 14.23827384 71946
